1 45548U 20025T   23029.75264756  .00000029  00000-0  20834-4 0  9995
2 45548  53.0544 161.5488 0001234  87.3492 272.7638 15.06397180154022
1 45548U 20025T   23030.08437928 -.00001163  00000-0 -59220-4 0  9999
2 45548  53.0545 160.0596 0001265  74.3726 285.7403 15.06403817153496
1 45548U 20025T   23030.34976622  .00000679  00000-0  64470-4 0  9999
2 45548  53.0543 158.8679 0001197  87.5617 272.5509 15.06398673154114
1 45548U 20025T   23030.68149454  .00000406  00000-0  46121-4 0  9992
2 45548  53.0541 157.3790 0001192  83.1052 277.0073 15.06407954154164
1 45548U 20025T   23031.47766625  .00000342  00000-0  41861-4 0  9990
2 45548  53.0541 153.8056 0001293  77.5990 282.5143 15.06392353154288
1 45548U 20025T   23031.47766625  .00000342  00000-0  41861-4 0  9990
2 45548  53.0541 153.8056 0001293  77.5990 282.5143 15.06392353153704
1 45548U 20025T   23032.47286460 -.00000600  00000-0 -21371-4 0  9998
2 45548  53.0527 149.3359 0001397  88.1592 271.9557 15.06401513153851
1 45548U 20025T   23032.53921177 -.00000641  00000-0 -24136-4 0  9993
2 45548  53.0533 149.0385 0001328  87.8095 272.3046 15.06400800154444
1 45548U 20025T   23033.00364278 -.00000313  00000-0 -21247-5 0  9996
2 45548  53.0536 146.9538 0001227  96.9927 263.1201 15.06393806153937
1 45548U 20025T   23033.53443331  .00009724  00000-0  67175-3 0  9993
2 45548  53.0555 144.5726 0001077 113.8959 246.2143 15.06345056154592
1 45548U 20025T   23034.33058836 -.00000746  00000-0 -31207-4 0  9999
2 45548  53.0537 140.9971 0001159  92.8882 267.2240 15.06388662154711
1 45548U 20025T   23034.33058836 -.00000746  00000-0 -31207-4 0  9999
2 45548  53.0537 140.9971 0001159  92.8882 267.2240 15.06388662154137
1 45548U 20025T   23034.72866597 -.00000189  00000-0  61922-5 0  9991
2 45548  53.0550 139.2089 0001218  99.3487 260.7640 15.06394239154771
1 45548U 20025T   23034.72866597 -.00000189  00000-0  61922-5 0  9991
2 45548  53.0550 139.2089 0001218  99.3487 260.7640 15.06394239154197
1 45548U 20025T   23035.59116698  .00001493  00000-0  11908-3 0  9992
2 45548  53.0541 135.3378 0001032  95.3344 264.7762 15.06403735154907
1 45548U 20025T   23035.59116698  .00001493  00000-0  11908-3 0  9992
2 45548  53.0541 135.3378 0001032  95.3344 264.7762 15.06403735154323
1 45548U 20025T   23035.98925218  .00000532  00000-0  54607-4 0  9998
2 45548  53.0550 133.5503 0001130  88.4367 271.6751 15.06399317154381
1 45548U 20025T   23036.52003184 -.00000218  00000-0  42417-5 0  9997
2 45548  53.0534 131.1685 0001051  84.2574 275.8534 15.06396432155048
1 45548U 20025T   23036.52003184 -.00000218  00000-0  42417-5 0  9997
2 45548  53.0534 131.1685 0001051  84.2574 275.8534 15.06396432154463
1 45548U 20025T   23037.51522539  .00000023  00000-0  20415-4 0  9993
2 45548  53.0537 126.6992 0001123  94.6467 265.4651 15.06408145155193
1 45548U 20025T   23037.64791328  .00000426  00000-0  47446-4 0  9991
2 45548  53.0538 126.1023 0001145 106.7839 253.3275 15.06413883155212
1 45548U 20025T   23037.64791328  .00000426  00000-0  47446-4 0  9991
2 45548  53.0538 126.1023 0001145 106.7839 253.3275 15.06413883154637
1 45548U 20025T   23038.44408395  .00001266  00000-0  10388-3 0  9996
2 45548  53.0543 122.5274 0001351  98.1874 261.9268 15.06397277154751
1 45548U 20025T   23038.51042374  .00000452  00000-0  49226-4 0  9995
2 45548  53.0548 122.2282 0001355 112.0853 248.0280 15.06408558155340
1 45548U 20025T   23038.51042374  .00000452  00000-0  49226-4 0  9995
2 45548  53.0548 122.2282 0001355 112.0853 248.0280 15.06408558154765
1 45548U 20025T   23039.50563123 -.00000647  00000-0 -24528-4 0  9991
2 45548  53.0553 117.7607 0001317 114.2938 245.8189 15.06403816154919
1 45548U 20025T   23039.70466255  .00000647  00000-0  62292-4 0  9999
2 45548  53.0552 116.8658 0001223 119.7770 240.3341 15.06412230155522
1 45548U 20025T   23039.70466255  .00000647  00000-0  62292-4 0  9999
2 45548  53.0552 116.8658 0001223 119.7770 240.3341 15.06412230154947
1 45548U 20025T   23040.16911536 -.00001461  00000-0 -79233-4 0  9998
2 45548  53.0544 114.7846 0001216  97.4293 262.6834 15.06383604155013
1 45548U 20025T   23040.43449946 -.00001646  00000-0 -91628-4 0  9996
2 45548  53.0539 113.5968 0001250  76.5683 283.5445 15.06392746155633
1 45548U 20025T   23040.43449946 -.00001646  00000-0 -91628-4 0  9996
2 45548  53.0539 113.5968 0001250  76.5683 283.5445 15.06392746155059
1 45548U 20025T   23040.89891983 -.00000448  00000-0 -11165-4 0  9995
2 45548  53.0549 111.5120 0001404  61.7334 298.3796 15.06403475155705
1 45548U 20025T   23040.89891983 -.00000448  00000-0 -11165-4 0  9995
2 45548  53.0549 111.5120 0001404  61.7334 298.3796 15.06403475155121
1 45548U 20025T   23040.96526971  .00001330  00000-0  10820-3 0  9990
2 45548  53.0547 111.2145 0001161  73.4063 286.7053 15.06395735155713
1 45548U 20025T   23041.89412618 -.00000349  00000-0 -45772-5 0  9992
2 45548  53.0544 107.0427 0001064  67.7535 292.3567 15.06401396155857
1 45548U 20025T   23041.89412618 -.00000349  00000-0 -45772-5 0  9992
2 45548  53.0544 107.0427 0001064  67.7535 292.3567 15.06401396155273
1 45548U 20025T   23042.29221680  .00000818  00000-0  73809-4 0  9994
2 45548  53.0540 105.2554 0001251  64.7259 295.3859 15.06390012155334
1 45548U 20025T   23042.55760044  .00002796  00000-0  20653-3 0  9990
2 45548  53.0543 104.0693 0001775  54.8582 305.2573 15.06394585155959
1 45548U 20025T   23042.55760044  .00002796  00000-0  20653-3 0  9990
2 45548  53.0543 104.0693 0001775  54.8582 305.2573 15.06394585155375
1 45548U 20025T   23042.88933599  .00000615  00000-0  60188-4 0  9999
2 45548  53.0544 102.5767 0001490  60.0989 300.0148 15.06396403156008
1 45548U 20025T   23043.55279779  .00000495  00000-0  52093-4 0  9999
2 45548  53.0529  99.6002 0001411  62.9375 297.1758 15.06408066156105
1 45548U 20025T   23044.14992714  .00000937  00000-0  81793-4 0  9996
2 45548  53.0531  96.9170 0001698  71.7625 288.3548 15.06396190155615
1 45548U 20025T   23044.41530972  .00001598  00000-0  12616-3 0  9991
2 45548  53.0528  95.7248 0001541  75.2455 284.8704 15.06401171156231
1 45548U 20025T   23045.47686120  .00000586  00000-0  58249-4 0  9994
2 45548  53.0530  90.9579 0001305  85.5030 274.6108 15.06401987155812
1 45548U 20025T   23045.54320820  .00000569  00000-0  57068-4 0  9993
2 45548  53.0532  90.6604 0001326  86.2442 273.8699 15.06401339156401
1 45548U 20025T   23045.80859981 -.00000621  00000-0 -22814-4 0  9999
2 45548  53.0546  89.4677 0001404  86.5250 273.5899 15.06397388156440
1 45548U 20025T   23045.80859981 -.00000621  00000-0 -22814-4 0  9999
2 45548  53.0546  89.4677 0001404  86.5250 273.5899 15.06397388155865
1 45548U 20025T   23046.47206316  .00000963  00000-0  83515-4 0  9993
2 45548  53.0553  86.4889 0001404  98.7251 261.3897 15.06403612156548
1 45548U 20025T   23046.80379141  .00000692  00000-0  65355-4 0  9998
2 45548  53.0563  85.0023 0001462  90.8005 269.3151 15.06411212156599
1 45548U 20025T   23046.80379141  .00000692  00000-0  65355-4 0  9998
2 45548  53.0563  85.0023 0001462  90.8005 269.3151 15.06411212156016
1 45548U 20025T   23047.46725828  .00002741  00000-0  20278-3 0  9999
2 45548  53.0564  82.0242 0001332  88.9292 271.1850 15.06411178156691
1 45548U 20025T   23047.79900269 -.00000979  00000-0 -46881-4 0  9991
2 45548  53.0545  80.5321 0001239  95.8433 264.2697 15.06391612156749
1 45548U 20025T   23047.79900269 -.00000979  00000-0 -46881-4 0  9991
2 45548  53.0545  80.5321 0001239  95.8433 264.2697 15.06391612156165
1 45548U 20025T   23048.13074684 -.00003898  00000-0 -24305-3 0  9992
2 45548  53.0548  79.0450 0001457 102.7760 257.3392 15.06379237156217
1 45548U 20025T   23048.39613250 -.00003371  00000-0 -20762-3 0  9997
2 45548  53.0555  77.8531 0001496  96.3600 263.7560 15.06386069156832
1 45548U 20025T   23048.79421652 -.00002046  00000-0 -11853-3 0  9993
2 45548  53.0555  76.0656 0001586  94.3881 265.7289 15.06387246156894
1 45548U 20025T   23048.79421652 -.00002046  00000-0 -11853-3 0  9993
2 45548  53.0555  76.0656 0001586  94.3881 265.7289 15.06387246156311
1 45548U 20025T   23049.45768461  .00000426  00000-0  47524-4 0  9992
2 45548  53.0538  73.0866 0001377 104.0290 256.0852 15.06395980156990
1 45548U 20025T   23049.45768461  .00000426  00000-0  47524-4 0  9992
2 45548  53.0538  73.0866 0001377 104.0290 256.0852 15.06395980156417
1 45548U 20025T   23050.45288608  .00008196  00000-0  56833-3 0  9998
2 45548  53.0534  68.6181 0001398 105.1107 255.0037 15.06411606157144
1 45548U 20025T   23050.45288608  .00008196  00000-0  56833-3 0  9998
2 45548  53.0534  68.6181 0001398 105.1107 255.0037 15.06411606156569
1 45548U 20025T   23051.31540121  .00001266  00000-0  10390-3 0  9994
2 45548  53.0534  64.7467 0001234 100.0290 260.0838 15.06397722157275
1 45548U 20025T   23051.31540121  .00001266  00000-0  10390-3 0  9994
2 45548  53.0534  64.7467 0001234 100.0290 260.0838 15.06397722156690
1 45548U 20025T   23052.04521157  .00010033  00000-0  69124-3 0  9994
2 45548  53.0540  61.4710 0001197  99.6425 260.4699 15.06413972156801
1 45548U 20025T   23052.44328373  .00018856  00000-0  12801-2 0  9993
2 45548  53.0543  59.6839 0001169  99.7654 260.3467 15.06437649157449
1 45548U 20025T   23052.44328373  .00018856  00000-0  12801-2 0  9993
2 45548  53.0543  59.6839 0001169  99.7654 260.3467 15.06437649156864
1 45548U 20025T   23052.70867748  .00007013  00000-0  48903-3 0  9992
2 45548  53.0538  58.4906 0002189  78.4796 281.6438 15.06413830157483
1 45548U 20025T   23052.70867748  .00007013  00000-0  48903-3 0  9992
2 45548  53.0538  58.4906 0002189  78.4796 281.6438 15.06413830156909
1 45548U 20025T   23053.04041272 -.00004082  00000-0 -25530-3 0  9992
2 45548  53.0561  57.0071 0001843 103.8846 256.2349 15.06396439156957
1 45548U 20025T   23053.43850171  .00019755  00000-0  13421-2 0  9997
2 45548  53.0541  55.2163 0001202  78.0822 282.0302 15.06379990157593
1 45548U 20025T   23053.43850171  .00019755  00000-0  13421-2 0  9997
2 45548  53.0541  55.2163 0001202  78.0822 282.0302 15.06379990157010
